model,file,norad_id,feature,RMSE,MAPE%,h,w,span,overall_acc_percent,hidden,layers,heads,horizon_days,levels,epochs,batches,kernel,d_model,blocks
lstm,37791_tle_20250729_214501_last180d_enctrig_w90_h1,37791,mean_motion,0.0011632131436335965,0.007904797530500218,1,90.0,last180d,99.93469261316932,512.0,3.0,,,,120.0,128.0,,,
lstm,37791_tle_20250729_214501_last180d_enctrig_w90_h1,37791,semi_major_axis,0.39949594418516304,0.004586967406794429,1,90.0,last180d,99.93469261316932,512.0,3.0,,,,120.0,128.0,,,
lstm,37791_tle_20250729_214501_last180d_enctrig_w90_h1,37791,inclination_deg,0.002111601298494208,,1,90.0,last180d,99.93469261316932,512.0,3.0,,,,120.0,128.0,,,
lstm,37791_tle_20250729_214501_last180d_enctrig_w90_h1,37791,raan_deg,22.110148796220848,,1,90.0,last180d,99.93469261316932,512.0,3.0,,,,120.0,128.0,,,
lstm,37791_tle_20250729_214501_last180d_enctrig_w90_h1,37791,arg_perigee_deg,55.31321465364857,,1,90.0,last180d,99.93469261316932,512.0,3.0,,,,120.0,128.0,,,
lstm,37791_tle_20250729_214501_last180d_enctrig_w90_h1,37791,mean_anomaly_deg,72.00462604165064,,1,90.0,last180d,99.93469261316932,512.0,3.0,,,,120.0,128.0,,,
lstm,37791_tle_20250729_214501_last730d_enctrig_w30_h90,37791,eccentricity,2.131638582781566e-05,0.08512177155353129,90,30.0,last730d,99.96244975021303,512.0,3.0,,,,120.0,128.0,,,
lstm,37791_tle_20250729_214501_last730d_enctrig_w30_h90,37791,mean_motion,0.0019597417817917673,0.011218732834095135,90,30.0,last730d,99.96244975021303,512.0,3.0,,,,120.0,128.0,,,
lstm,37791_tle_20250729_214501_last730d_enctrig_w30_h90,37791,semi_major_axis,1.4129596434956446,0.01631024497328326,90,30.0,last730d,99.96244975021303,512.0,3.0,,,,120.0,128.0,,,
lstm,37791_tle_20250729_214501_last730d_enctrig_w30_h90,37791,inclination_deg,0.007996008746336039,,90,30.0,last730d,99.96244975021303,512.0,3.0,,,,120.0,128.0,,,
lstm,37791_tle_20250729_214501_last730d_enctrig_w30_h90,37791,raan_deg,259.2430264763655,,90,30.0,last730d,99.96244975021303,512.0,3.0,,,,120.0,128.0,,,
lstm,37791_tle_20250729_214501_last730d_enctrig_w30_h90,37791,arg_perigee_deg,8.884732270467389,,90,30.0,last730d,99.96244975021303,512.0,3.0,,,,120.0,128.0,,,
lstm,37791_tle_20250729_214501_last730d_enctrig_w30_h90,37791,mean_anomaly_deg,4.96759743712392,,90,30.0,last730d,99.96244975021303,512.0,3.0,,,,120.0,128.0,,,
lstm,37791_tle_20250729_214501_last180d_enctrig_w60_h3,37791,eccentricity,4.9184261646469236e-05,0.2454492263495922,3,60.0,last180d,99.91448303529371,512.0,3.0,,,,120.0,128.0,,,
lstm,37791_tle_20250729_214501_last180d_enctrig_w60_h3,37791,mean_motion,0.0010069395797252022,0.006705661508021876,3,60.0,last180d,99.91448303529371,512.0,3.0,,,,120.0,128.0,,,
lstm,37791_tle_20250729_214501_last180d_enctrig_w60_h3,37791,semi_major_axis,0.37041028980963764,0.004396006261231378,3,60.0,last180d,99.91448303529371,512.0,3.0,,,,120.0,128.0,,,
lstm,37791_tle_20250729_214501_last180d_enctrig_w60_h3,37791,inclination_deg,0.0006115286622307189,,3,60.0,last180d,99.91448303529371,512.0,3.0,,,,120.0,128.0,,,
lstm,37791_tle_20250729_214501_last180d_enctrig_w60_h3,37791,raan_deg,15.40046465373463,,3,60.0,last180d,99.91448303529371,512.0,3.0,,,,120.0,128.0,,,
lstm,37791_tle_20250729_214501_last180d_enctrig_w60_h3,37791,arg_perigee_deg,56.50910906033152,,3,60.0,last180d,99.91448303529371,512.0,3.0,,,,120.0,128.0,,,
lstm,37791_tle_20250729_214501_last180d_enctrig_w60_h3,37791,mean_anomaly_deg,56.60366619920118,,3,60.0,last180d,99.91448303529371,512.0,3.0,,,,120.0,128.0,,,
lstm,37791_tle_20250729_214501_last730d_enctrig_w90_h3,37791,eccentricity,1.8305940068613158e-05,0.06971765542402864,3,90.0,last730d,99.96986384758202,512.0,3.0,,,,120.0,128.0,,,
lstm,37791_tle_20250729_214501_last730d_enctrig_w90_h3,37791,mean_motion,0.0006251880473204768,0.003578370888135396,3,90.0,last730d,99.96986384758202,512.0,3.0,,,,120.0,128.0,,,
lstm,37791_tle_20250729_214501_last730d_enctrig_w90_h3,37791,semi_major_axis,1.4340205168007851,0.017112430941779166,3,90.0,last730d,99.96986384758202,512.0,3.0,,,,120.0,128.0,,,
lstm,37791_tle_20250729_214501_last730d_enctrig_w90_h3,37791,inclination_deg,0.002281011167499015,,3,90.0,last730d,99.96986384758202,512.0,3.0,,,,120.0,128.0,,,
lstm,37791_tle_20250729_214501_last730d_enctrig_w90_h3,37791,raan_deg,231.3117874882988,,3,90.0,last730d,99.96986384758202,512.0,3.0,,,,120.0,128.0,,,
lstm,37791_tle_20250729_214501_last730d_enctrig_w90_h3,37791,arg_perigee_deg,7.660233031540428,,3,90.0,last730d,99.96986384758202,512.0,3.0,,,,120.0,128.0,,,
lstm,37791_tle_20250729_214501_last730d_enctrig_w90_h3,37791,mean_anomaly_deg,7.678518301722199,,3,90.0,last730d,99.96986384758202,512.0,3.0,,,,120.0,128.0,,,
lstm,37791_tle_20250729_214501_last90d_enctrig_w60_h3,37791,eccentricity,3.029049187766595e-05,0.1382016111165285,3,60.0,last90d,99.95263243548227,512.0,3.0,,,,120.0,128.0,,,
lstm,37791_tle_20250729_214501_last90d_enctrig_w60_h3,37791,mean_motion,0.0003994814816542908,0.0026745292416308075,3,60.0,last90d,99.95263243548227,512.0,3.0,,,,120.0,128.0,,,
lstm,37791_tle_20250729_214501_last90d_enctrig_w60_h3,37791,semi_major_axis,0.10267251277087493,0.0012265531950106379,3,60.0,last90d,99.95263243548227,512.0,3.0,,,,120.0,128.0,,,
lstm,37791_tle_20250729_214501_last90d_enctrig_w60_h3,37791,inclination_deg,0.00011372930415426127,,3,60.0,last90d,99.95263243548227,512.0,3.0,,,,120.0,128.0,,,
lstm,37791_tle_20250729_214501_last90d_enctrig_w60_h3,37791,raan_deg,4.698464505050146,,3,60.0,last90d,99.95263243548227,512.0,3.0,,,,120.0,128.0,,,
lstm,37791_tle_20250729_214501_last90d_enctrig_w60_h3,37791,arg_perigee_deg,45.97338175614136,,3,60.0,last90d,99.95263243548227,512.0,3.0,,,,120.0,128.0,,,
lstm,37791_tle_20250729_214501_last90d_enctrig_w60_h3,37791,mean_anomaly_deg,24.77317125171712,,3,60.0,last90d,99.95263243548227,512.0,3.0,,,,120.0,128.0,,,
lstm,37791_tle_20250729_214501_full_enctrig_w30_h7,37791,eccentricity,0.00013082041638515918,0.6189316511154175,7,30.0,full,99.7655453820092,512.0,3.0,,,,120.0,128.0,,,
lstm,37791_tle_20250729_214501_full_enctrig_w30_h7,37791,mean_motion,0.004901668528917383,0.02753298613242805,7,30.0,full,99.7655453820092,512.0,3.0,,,,120.0,128.0,,,
lstm,37791_tle_20250729_214501_full_enctrig_w30_h7,37791,semi_major_axis,4.817396373099452,0.056899216724559665,7,30.0,full,99.7655453820092,512.0,3.0,,,,120.0,128.0,,,
lstm,37791_tle_20250729_214501_full_enctrig_w30_h7,37791,inclination_deg,0.006946041001100136,,7,30.0,full,99.7655453820092,512.0,3.0,,,,120.0,128.0,,,
lstm,37791_tle_20250729_214501_full_enctrig_w30_h7,37791,raan_deg,1500.1510572238517,,7,30.0,full,99.7655453820092,512.0,3.0,,,,120.0,128.0,,,
lstm,37791_tle_20250729_214501_full_enctrig_w30_h7,37791,arg_perigee_deg,29.12054226220063,,7,30.0,full,99.7655453820092,512.0,3.0,,,,120.0,128.0,,,
lstm,37791_tle_20250729_214501_full_enctrig_w30_h7,37791,mean_anomaly_deg,15.558276174507775,,7,30.0,full,99.7655453820092,512.0,3.0,,,,120.0,128.0,,,
lstm,37791_tle_20250729_214501_last180d_enctrig_w60_h90,37791,eccentricity,1.3672815198292322e-05,0.051842170068994164,90,60.0,last180d,99.98039108995727,512.0,3.0,,,,120.0,128.0,,,
lstm,37791_tle_20250729_214501_last180d_enctrig_w60_h90,37791,mean_motion,0.0005193193954080503,0.002903679160226602,90,60.0,last180d,99.98039108995727,512.0,3.0,,,,120.0,128.0,,,
lstm,37791_tle_20250729_214501_last180d_enctrig_w60_h90,37791,semi_major_axis,0.3234809846256781,0.0040808808989822865,90,60.0,last180d,99.98039108995727,512.0,3.0,,,,120.0,128.0,,,
lstm,37791_tle_20250729_214501_last180d_enctrig_w60_h90,37791,inclination_deg,0.0009463863048029892,,90,60.0,last180d,99.98039108995727,512.0,3.0,,,,120.0,128.0,,,
lstm,37791_tle_20250729_214501_last180d_enctrig_w60_h90,37791,raan_deg,14.221136017109902,,90,60.0,last180d,99.98039108995727,512.0,3.0,,,,120.0,128.0,,,
lstm,37791_tle_20250729_214501_last180d_enctrig_w60_h90,37791,arg_perigee_deg,40.31466906652876,,90,60.0,last180d,99.98039108995727,512.0,3.0,,,,120.0,128.0,,,
lstm,37791_tle_20250729_214501_last180d_enctrig_w60_h90,37791,mean_anomaly_deg,63.160466802400414,,90,60.0,last180d,99.98039108995727,512.0,3.0,,,,120.0,128.0,,,
lstm,37791_tle_20250729_214501_last730d_enctrig_w90_h90,37791,eccentricity,6.289786968735708e-06,0.026107588200829923,90,90.0,last730d,99.98378895033966,512.0,3.0,,,,120.0,128.0,,,
lstm,37791_tle_20250729_214501_last730d_enctrig_w90_h90,37791,mean_motion,0.0006509159065701577,0.003563089558156207,90,90.0,last730d,99.98378895033966,512.0,3.0,,,,120.0,128.0,,,
lstm,37791_tle_20250729_214501_last730d_enctrig_w90_h90,37791,semi_major_axis,1.604058010170095,0.018962471222039312,90,90.0,last730d,99.98378895033966,512.0,3.0,,,,120.0,128.0,,,
lstm,37791_tle_20250729_214501_last730d_enctrig_w90_h90,37791,inclination_deg,0.006432253527751814,,90,90.0,last730d,99.98378895033966,512.0,3.0,,,,120.0,128.0,,,
lstm,37791_tle_20250729_214501_last730d_enctrig_w90_h90,37791,raan_deg,241.1601826110268,,90,90.0,last730d,99.98378895033966,512.0,3.0,,,,120.0,128.0,,,
lstm,37791_tle_20250729_214501_last730d_enctrig_w90_h90,37791,arg_perigee_deg,4.8301334767750665,,90,90.0,last730d,99.98378895033966,512.0,3.0,,,,120.0,128.0,,,
lstm,37791_tle_20250729_214501_last730d_enctrig_w90_h90,37791,mean_anomaly_deg,3.1425862588221456,,90,90.0,last730d,99.98378895033966,512.0,3.0,,,,120.0,128.0,,,
lstm,37791_tle_20250729_214501_last90d_enctrig_w90_h15,37791,eccentricity,4.904188122683653e-05,0.2376246964558959,15,90.0,last90d,99.91942108866472,512.0,3.0,,,,120.0,128.0,,,
lstm,37791_tle_20250729_214501_last90d_enctrig_w90_h15,37791,mean_motion,0.00040398360882366077,0.0027130143280373886,15,90.0,last90d,99.91942108866472,512.0,3.0,,,,120.0,128.0,,,
lstm,37791_tle_20250729_214501_last90d_enctrig_w90_h15,37791,semi_major_axis,0.11717167588524917,0.0013990232218930032,15,90.0,last90d,99.91942108866472,512.0,3.0,,,,120.0,128.0,,,
lstm,37791_tle_20250729_214501_last90d_enctrig_w90_h15,37791,inclination_deg,8.004251043974859e-05,,15,90.0,last90d,99.91942108866472,512.0,3.0,,,,120.0,128.0,,,
